[{"OBJECT_NAME":"OBJECT D","OBJECT_ID":"2024-085D","EPOCH":"2026-03-09T22:53:13.410816","MEAN_MOTION":15.33413141,"ECCENTRICITY":0.00152451,"INCLINATION":97.3312,"RA_OF_ASC_NODE":145.3953,"ARG_OF_PERICENTER":54.9672,"MEAN_ANOMALY":305.2998,"EPHEMERIS_TYPE":0,"CLASSIFICATION_TYPE":"U","NORAD_CAT_ID":59680,"ELEMENT_SET_NO":999,"REV_AT_EPOCH":10244,"BSTAR":0.00049264705,"MEAN_MOTION_DOT":0.00015903,"MEAN_MOTION_DDOT":0},{"OBJECT_NAME":"STARLINK-35636","OBJECT_ID":"2025-240Q","EPOCH":"2026-03-09T06:57:26.020800","MEAN_MOTION":15.30193151,"ECCENTRICITY":0.00012597,"INCLINATION":53.1594,"RA_OF_ASC_NODE":64.9254,"ARG_OF_PERICENTER":85.355,"MEAN_ANOMALY":274.7594,"EPHEMERIS_TYPE":0,"CLASSIFICATION_TYPE":"U","NORAD_CAT_ID":66160,"ELEMENT_SET_NO":999,"REV_AT_EPOCH":2192,"BSTAR":0.00096814217,"MEAN_MOTION_DOT":0.00028418,"MEAN_MOTION_DDOT":0}]
